TYVAK-0129              
1 44853U 19089B   24036.55311304  .00039972  00000+0  15382-2 0  9998
2 44853  36.9592  95.0021 0010212 156.1191 204.0035 15.25427638228556
DUCHIFAT-3              
1 44854U 19089C   24036.62769856  .00014656  00000+0  84638-3 0  9999
2 44854  36.9589 130.7811 0007801  87.3764 272.7874 15.11677531228173
ANGELS                  
1 44876U 19092D   24037.06738067  .00008358  00000+0  34119-3 0  9997
2 44876  97.4744 225.6626 0011636  67.6256 292.6213 15.24600361229213
OPS-SAT                 
1 44878U 19092F   24037.09785068  .00094120  00000+0  14626-2 0  9997
2 44878  97.4569 236.4354 0006177   7.7247 352.4100 15.53599875229845
TIANQIN 1 (CAS-6)       
1 44879U 19093A   24037.20335462  .00003547  00000+0  41243-3 0  9990
2 44879  97.8472 118.4545 0014236  32.5025 327.7064 14.85883640223588
ETRSS-1                 
1 44880U 19093B   24037.19217004  .00004006  00000+0  46357-3 0  9993
2 44880  97.8477 118.5379 0014524  34.1253 326.0893 14.86011443223578
TIANYAN 01              
1 44881U 19093C   24037.17617020  .00001323  00000+0  16808-3 0  9991
2 44881  97.8407 116.4962 0015377  38.8218 321.4097 14.83240074223471
TIANYAN 02              
1 44882U 19093D   24037.21460234  .00005909  00000+0  64737-3 0  9998
2 44882  97.8545 120.6227 0014870  30.5645 329.6435 14.88056416223652
CBERS 4A                
1 44883U 19093E   24037.19703977  .00001787  00000+0  23416-3 0  9999
2 44883  97.8430 116.1242 0002747 104.7143 255.4375 14.81570508223442
WEILAI 1R               
1 44884U 19093F   24037.20770412  .00004783  00000+0  53311-3 0  9996
2 44884  97.8470 119.7804 0013013  35.1368 325.0704 14.87469376223675
YUHENG                  
1 44885U 19093G   24037.18917228  .00005900  00000+0  64258-3 0  9996
2 44885  97.8505 120.9408 0013706  35.8370 324.3763 14.88314267223720
SHUNTIAN                
1 44886U 19093H   24037.16748694  .00003721  00000+0  42523-3 0  9994
2 44886  97.8549 121.1902 0014949  42.9722 317.2659 14.86564438223709
2019-093L               
1 44889U 19093L   24037.19810085  .00003613  00000+0  42676-3 0  9993
2 44889  97.8366 115.9076 0014968  27.7222 332.4788 14.85219604223397
ELEKTRO-L 3             
1 44903U 19095A   24036.87904446 -.00000084  00000+0  00000+0 0  9992
2 44903   0.0499 281.9692 0000966  47.6122 198.4430  1.00271590 15060
GONETS-M 14             
1 44905U 19096A   24036.92081198  .00000035  00000+0  18271-3 0  9999
2 44905  82.5194 259.1808 0013025 234.8641 125.1219 12.42865444186562
GONETS-M 15             
1 44906U 19096B   24036.94694512  .00000043  00000+0  24132-3 0  9994
2 44906  82.5214 259.4809 0014956 257.9431 101.9973 12.42867734186537
GONETS-M 16             
1 44907U 19096C   24037.13462891  .00000023  00000+0  93123-4 0  9995
2 44907  82.5159 258.7035 0011177 301.3257  58.6728 12.42902865186587
RS-44 & BREEZE-KM R/B   
1 44909U 19096E   24036.90732697  .00000012  00000+0  68028-5 0  9990
2 44909  82.5221 192.6479 0217372   0.7820 359.3579 12.79726253192057
JILIN-1 KUANFU 01       
1 45016U 20003A   24037.17392512  .00006173  00000+0  35401-3 0  9999
2 45016  97.5966 110.6848 0007582 143.0736 217.1018 15.12912737225102
XINGYUN-2 01            
1 45602U 20028A   24037.11891535  .00002716  00000+0  19721-3 0  9996
2 45602  97.4518  42.3019 0009609 285.1019  74.9144 15.04666995204873
XINGYUN-2 02            
1 45603U 20028B   24037.10455343  .00003598  00000+0  25979-3 0  9990
2 45603  97.5219  50.8588 0012394 353.0384   7.0668 15.04657129204870
HAIYANG-1D              
1 45721U 20036A   24037.13119559  .00000310  00000+0  12635-3 0  9993
2 45721  98.5778 338.5813 0003672 117.9511 242.2046 14.34216270191415
M2 PATHFINDER           
1 45727U 20037E   24036.79778356  .00003810  00000+0  34532-3 0  9995
2 45727  97.7663 214.1052 0010896 201.6384 158.4378 14.95910019196144
GAOFEN DUOMO (GFDM)     
1 45856U 20042A   24037.17110380  .00001338  00000+0  19783-3 0  9998
2 45856  97.8836 111.5520 0012325 359.2393   0.8797 14.76792454193781
BY70-2                  
1 45857U 20042B   24037.16025959  .00052009  00000+0  35421-2 0  9992
2 45857  97.9187 125.0860 0007576 298.3232  61.7230 15.06051855194546
ZINYUAN-3               
1 45939U 20051A   24037.16752430  .00009706  00000+0  43807-3 0  9998
2 45939  97.3786 116.2456 0012405  99.6988 260.5650 15.21126633196299
TIANQI-10               
1 45941U 20051C   24037.16834123  .00073151  00000+0  89471-3 0  9993
2 45941  97.4063 139.2226 0005743 356.1106   4.0105 15.60149769197689
Q-SAT                   
1 46026U 20054B   24037.17996209  .00069943  00000+0  90124-3 0  9997
2 46026  97.3481 128.4454 0007149  35.5643 324.6088 15.58771307195737
GLOBAL-8                
1 46089U 20055BQ  24036.75838133  .00164053  00000+0  10550-2 0  9993
2 46089  52.9816 209.7175 0004168 184.9747 175.1230 15.75199453203610
TIANTUO 5               
1 46234U 20058C   24037.17040703  .00019451  00000+0  59709-3 0  9994
2 46234  97.3220  96.0222 0014407 127.0494 233.2069 15.33672024192514
TYVAK-0172              
1 46267U 20059C   24036.55062238  .00015352  00000+0  12145-2 0  9997
2 46267  97.8384 237.7920 0002790  18.7114 341.4211 15.00713968186838
ION-MK01                
1 46274U 20061C   24036.89256864  .00011320  00000+0  43636-3 0  9996
2 46274  97.3196 103.2907 0004781 175.8156 184.3124 15.26475381189772
UPMSAT-2                
1 46276U 20061E   24037.17667539  .00014447  00000+0  51305-3 0  9990
2 46276  97.3171 105.3391 0000769 146.8644 213.2645 15.29135856189974
NEMO-HD                 
1 46277U 20061F   24037.17927534  .00007234  00000+0  30240-3 0  9996
2 46277  97.3174 103.0680 0000753 153.8508 206.2768 15.23897929189826
SIMBA                   
1 46279U 20061H   24036.75035886  .00049795  00000+0  13078-2 0  9998
2 46279  97.3709 107.7150 0002358 333.6023  26.5102 15.38455710189456
TRISAT                  
1 46280U 20061J   24037.17766027  .00042073  00000+0  12199-2 0  9990
2 46280  97.3599 106.6934 0002240 337.9721  22.1426 15.35415595189472
PICASSO-BEL             
1 46281U 20061K   24036.71192297  .00137240  00000+0  19512-2 0  9999
2 46281  97.3665 112.1602 0003609 289.2215  70.8649 15.55899840189779
DIDO 3                  
1 46284U 20061N   24036.72918709  .00020786  00000+0  79141-3 0  9998
2 46284  97.3691 103.8408 0002459   2.1457 357.9792 15.26758902189188
FLOCK 4V-14             
1 46286U 20061Q   24036.70810638  .00028563  00000+0  83176-3 0  9994
2 46286  97.3744 109.6608 0002148 327.5273  32.5838 15.35363729189580
AMICALSAT               
1 46287U 20061R   24036.83822233  .00025033  00000+0  89773-3 0  9991
2 46287  97.3701 104.8420 0001951  20.4593 339.6725 15.28697853189292
3CAT-5A                 
1 46292U 20061W   24037.17654478  .00008644  00000+0  41707-3 0  9993
2 46292  97.3694 101.2846 0002277 342.6956  17.4200 15.18917995189072
3CAT-5B                 
1 46293U 20061X   24037.11687080  .00009047  00000+0  43431-3 0  9997
2 46293  97.3699 101.4900 0002119 338.0878  22.0266 15.19078975189057
OSM-1 CICERO            
1 46294U 20061Y   24036.72103686  .00017284  00000+0  68570-3 0  9992
2 46294  97.3709 104.2558 0001811 326.5714  33.5409 15.25427730189228
TYVAK-0171              
1 46295U 20061Z   24037.17666164  .02459190  76469-2  27215-2 0  9991
2 46295  97.3523 118.9391 0009727 294.9685  65.0589 16.11460787190124
FLOCK 4V-10             
1 46296U 20061AA  24036.83765223  .00025609  00000+0  74908-3 0  9999
2 46296  97.3747 110.0209 0000751   3.0033 357.1215 15.35246249189576
FLOCK 4V-13             
1 46297U 20061AB  24036.78198955  .00024376  00000+0  72533-3 0  9998
2 46297  97.3737 109.9235 0000505 109.4456 250.6842 15.34716654189540
TTU100                  
1 46312U 20061AS  24037.14908964  .00051633  00000+0  12770-2 0  9998
2 46312  97.3751 110.8634 0001656 238.3866 121.7219 15.40289405189657
KEPLER-2 (TARS)         
1 46319U 20061AZ  24036.76680139  .00026456  00000+0  88376-3 0  9994
2 46319  97.3723 107.2631 0001204 185.1618 174.9611 15.31000023189443
NAPA-1                  
1 46320U 20061BA  24037.13856036  .00012234  00000+0  56289-3 0  9996
2 46320  97.3739 103.3249 0001581 213.7623 146.3512 15.20471843189214
FLOCK 4V-2              
1 46321U 20061BB  24037.17407713  .01422506  11568-2  26382-2 0  9997
2 46321  97.3175 119.2089 0005231 300.3127  59.7634 16.01378315190141
JILIN-1 GAOFEN 3B       
1 46454U 20065A   24037.15403872  .00013025  00000+0  57509-3 0  9991
2 46454  97.3639  84.6559 0010715 329.0303  31.0301 15.21821144187321
JILIN-1 GAOFEN 3E       
1 46457U 20065D   24037.16147148  .00012258  00000+0  54364-3 0  9999
2 46457  97.3648  84.7673 0009925 350.5175   9.5872 15.21690889187322
JILIN-1 GAOFEN 3F       
1 46458U 20065E   24037.13689290  .00013119  00000+0  58118-3 0  9994
2 46458  97.3582  83.6776 0010026 339.0425  21.0399 15.21710976187329
JILIN-1 GAOFEN 3G       
1 46459U 20065F   24037.18787950  .00012539  00000+0  55435-3 0  9996
2 46459  97.3700  85.7791 0010955 344.0673  16.0217 15.21784494187334
JILIN-1 GAOFEN 3H       
1 46460U 20065G   24037.14683110  .00012992  00000+0  57790-3 0  9996
2 46460  97.3593  83.8784 0010210 341.2359  18.8499 15.21572714187322
JILIN-1 GAOFEN 3J       
1 46462U 20065J   24037.16583254  .00012164  00000+0  53776-3 0  9999
2 46462  97.3637  84.7487 0009892 339.3954  20.6882 15.21802978187332
HAIYANG-2C              
1 46469U 20066A   24037.12294546 -.00000006  00000+0  68339-4 0  9991
2 46469  65.9947 201.6311 0014043 263.8460  96.1008 13.83375849170537
HJ-2A                   
1 46478U 20067A   24037.22874315  .00001258  00000+0  18799-3 0  9994
2 46478  97.9499 121.3669 0001717 125.3201 234.8170 14.76479445181068
HJ-2B                   
1 46479U 20067B   24036.99280647  .00001259  00000+0  18784-3 0  9992
2 46479  97.9537 121.6338 0001143 122.2334 237.8987 14.76540354181038
